{
    "satellites": [
        {
            "name": "starlink374",
            "title": "Starlink-374 (G17-35)",
            "tle": [
                "1 70377C 26073AA  26105.98520833 -.02230200  00000+0 -10011-1 0  1057",
                "2 70377  97.2850 303.5779 0001650  79.5963  16.1905 15.85261299    13"
            ],
            "stdMag": 5,
            "noradId": "70377",
            "intDes": null,
            "tleUrl": "http://celestrak.org/NORAD/elements/supplemental/sup-gp.php?FILE=starlink&FORMAT=tle",
            "launchDate": "2026-04-07T02:50:39.000Z",
            "active": true,
            "batch": [
                {
                    "noradId": "70377",
                    "tle": [
                        "1 70377C 26073AA  26105.98520833 -.02230200  00000+0 -10011-1 0  1057",
                        "2 70377  97.2850 303.5779 0001650  79.5963  16.1905 15.85261299    13"
                    ]
                },
                {
                    "noradId": "70376",
                    "tle": [
                        "1 70376C 26073Z   26105.97756944 -.02245900  00000+0 -10164-1 0  1051",
                        "2 70376  97.2851 303.5685 0001498  87.8463 320.8247 15.85096950    10"
                    ]
                },
                {
                    "noradId": "70375",
                    "tle": [
                        "1 70375C 26073Y   26105.95604167 -.02219100  00000+0 -10077-1 0  1053",
                        "2 70375  97.2852 303.5437 0001679  90.8574 191.3458 15.85009054    17"
                    ]
                },
                {
                    "noradId": "70374",
                    "tle": [
                        "1 70374C 26073X   26105.99354167 -.02272000  00000+0 -10503-1 0  1050",
                        "2 70374  97.2852 303.5821 0001849  80.6793  51.7129 15.84657879    19"
                    ]
                },
                {
                    "noradId": "70373",
                    "tle": [
                        "1 70373C 26073W   26105.96020833 -.02234400  00000+0 -10342-1 0  1059",
                        "2 70373  97.2854 303.5450 0001378  91.5479 207.0715 15.84612039    13"
                    ]
                },
                {
                    "noradId": "70372",
                    "tle": [
                        "1 70372C 26073V   26105.99909722 -.02281700  00000+0 -10753-1 0  1055",
                        "2 70372  97.2854 303.5848 0001906  93.3399  63.2644 15.84249464    12"
                    ]
                },
                {
                    "noradId": "70371",
                    "tle": [
                        "1 70371C 26073U   26105.95187500 -.02248800  00000+0 -10579-1 0  1052",
                        "2 70371  97.2854 303.5329 0001821 102.3425 141.3237 15.84270988    13"
                    ]
                },
                {
                    "noradId": "70370",
                    "tle": [
                        "1 70370C 26073T   26106.00673611 -.02303300  00000+0 -11072-1 0  1068",
                        "2 70370  97.2855 303.5896 0001761  99.3720  93.1769 15.83835998    19"
                    ]
                },
                {
                    "noradId": "70369",
                    "tle": [
                        "1 70369C 26073S   26105.98937500 -.02308000  00000+0 -11145-1 0  1054",
                        "2 70369  97.2857 303.5698 0001656  77.4629  12.2935 15.83742601    12"
                    ]
                },
                {
                    "noradId": "70368",
                    "tle": [
                        "1 70368C 26073R   26106.01854167 -.02325400  00000+0 -11413-1 0  1067",
                        "2 70368  97.2857 303.5990 0001625 103.3913 148.6993 15.83401511    17"
                    ]
                },
                {
                    "noradId": "70367",
                    "tle": [
                        "1 70367C 26073Q   26105.97548611 -.02305400  00000+0 -11326-1 0  1054",
                        "2 70367  97.2857 303.5519 0001402  94.1018 268.8959 15.83370634    17"
                    ]
                },
                {
                    "noradId": "70366",
                    "tle": [
                        "1 70366C 26073P   26106.03104167 -.02335200  00000+0 -11709-1 0  1062",
                        "2 70366  97.2857 303.6091 0001308 103.1621 212.2949 15.82943704    13"
                    ]
                },
                {
                    "noradId": "70365",
                    "tle": [
                        "1 70365C 26073N   26106.02756944 -.02214600  00000+0 -11189-1 0  1068",
                        "2 70365  97.2857 303.6042 0001699 104.1420 187.5748 15.82716008    15"
                    ]
                },
                {
                    "noradId": "70364",
                    "tle": [
                        "1 70364C 26073M   26106.00048611 -.02194700  00000+0 -11113-1 0  1065",
                        "2 70364  97.2857 303.5736 0001550  88.9901  44.5114 15.82657100    18"
                    ]
                },
                {
                    "noradId": "70363",
                    "tle": [
                        "1 70363C 26073L   26106.00534722 -.01930600  00000+0 -98604-2 0  1064",
                        "2 70363  97.2857 303.5775 0001659  84.5478  72.6436 15.82332317    10"
                    ]
                },
                {
                    "noradId": "70362",
                    "tle": [
                        "1 70362C 26073K   26105.99562500 -.01663000  00000+0 -85455-2 0  1051",
                        "2 70362  97.2857 303.5657 0001196  83.2416  14.6161 15.82062405    11"
                    ]
                },
                {
                    "noradId": "70361",
                    "tle": [
                        "1 70361C 26073J   26106.03243056 -.01095000  00000+0 -56818-2 0  1069",
                        "2 70361  97.2857 303.6025 0001371  93.9766 209.3173 15.81556160    12"
                    ]
                },
                {
                    "noradId": "70360",
                    "tle": [
                        "1 70360C 26073H   26106.00604167 -.00857170  00000+0 -44579-2 0  1063",
                        "2 70360  97.2857 303.5729 0000925  60.3733  88.6445 15.81385056    11"
                    ]
                },
                {
                    "noradId": "70359",
                    "tle": [
                        "1 70359C 26073G   26105.99979167 -.00505830  00000+0 -26376-2 0  1050",
                        "2 70359  97.2856 303.5649 0001312  93.5005  15.8366 15.81146532    18"
                    ]
                },
                {
                    "noradId": "70358",
                    "tle": [
                        "1 70358C 26073F   26105.97895833 -.00316360  00000+0 -16529-2 0  1051",
                        "2 70358  97.2856 303.5410 0001644 117.4070 229.2487 15.81005231    14"
                    ]
                },
                {
                    "noradId": "70357",
                    "tle": [
                        "1 70357C 26073E   26105.98520833 -.00084391  00000+0 -44131-3 0  1053",
                        "2 70357  97.2855 303.5458 0000979  93.4286 284.5704 15.80869246    15"
                    ]
                },
                {
                    "noradId": "70356",
                    "tle": [
                        "1 70356C 26073D   26105.99076389  .00115750  00000+0  60604-3 0  1050",
                        "2 70356  97.2855 303.5499 0000712  73.3389 332.0206 15.80740743    11"
                    ]
                },
                {
                    "noradId": "70355",
                    "tle": [
                        "1 70355C 26073C   26105.98312500  .00069938  00000+0  36590-3 0  1059",
                        "2 70355  97.2854 303.5398 0001528  96.8593 260.7846 15.80779213    11"
                    ]
                },
                {
                    "noradId": "70354",
                    "tle": [
                        "1 70354C 26073B   26106.00534722  .00043788  00000+0  22903-3 0  1063",
                        "2 70354  97.2855 303.5618 0001070 111.3238   8.4169 15.80798208    17"
                    ]
                },
                {
                    "noradId": "70353",
                    "tle": [
                        "1 70353C 26073A   26106.00673611  .00145510  00000+0  76180-3 0  1065",
                        "2 70353  97.2856 303.5616 0001677 117.4225   5.9074 15.80724595    16"
                    ]
                }
            ]
        }
    ],
    "config": {}
}